0 FENGYUN 1C DEB
1 29969U 99025KT  19261.06436748 +.00000575 +00000-0 +30366-3 0  9995
2 29969 098.9210 309.4189 0053331 127.3038 300.8101 14.17087094652972
0 FENGYUN 1C DEB
1 29969U 99025KT  19262.12073750  .00000600  00000-0  31561-3 0  9990
2 29969  98.9210 310.4789 0053318 124.3947 289.7986 14.17088518653217
0 FENGYUN 1C DEB
1 29970U 99025KU  19261.96343973 +.00000117 +00000-0 +53031-4 0  9990
2 29970 098.9625 080.9964 0102771 079.4350 047.4388 14.36734648663825
0 FENGYUN 1C DEB
1 29970U 99025KU  19262.73043839  .00000122  00000-0  54665-4 0  9994
2 29970  98.9625  81.7947 0102761  77.2005  54.5246 14.36734911664070
0 FENGYUN 1C DEB
1 29971U 99025KV  19261.86654465 +.00000245 +00000-0 +16007-3 0  9994
2 29971 098.9701 300.3345 0026255 153.9103 258.9354 14.11205912651761
0 FENGYUN 1C DEB
1 29971U 99025KV  19262.37646372  .00000252  00000-0  16413-3 0  9998
2 29971  98.9701 300.8439 0026269 152.5104 329.4617 14.11206255651858
0 FENGYUN 1C DEB
1 29973U 99025KX  19262.30493149  .00000489  00000-0  34548-3 0  9996
2 29973  98.9389 288.8577 0062599  15.5125  44.1362 14.01611366648044
0 FENGYUN 1C DEB
1 29973U 99025KX  19261.95918008 +.00000489 +00000-0 +34572-3 0  9999
2 29973 098.9389 288.5189 0062617 016.4740 099.5417 14.01611000647896
0 FENGYUN 1C DEB
1 29974U 99025KY  19261.17467605 -.00000130 +00000-0 -52293-4 0  9992
2 29974 099.0223 331.4120 0048743 347.9137 064.9689 14.05304524648707
0 FENGYUN 1C DEB
1 29975U 99025KZ  19262.86195451 -.00000113  00000-0 -46265-4 0  9990
2 29975  99.2945 224.5926 0115931  80.4457 333.9512 13.96956760646633
0 FENGYUN 1C DEB
1 29976U 99025LA  19262.06478490 -.00000104  00000-0 -32612-4 0  9991
2 29976  99.0178 289.8094 0275684  32.8952  19.1540 13.95568382645702
0 FENGYUN 1C DEB
1 29978U 99025LC  19262.06104066  .00000206  00000-0  18166-3 0  9996
2 29978  99.3578 280.3675 0077433 131.3478 288.8801 13.95130720645742
0 FENGYUN 1C DEB
1 29978U 99025LC  19261.70328858 +.00000188 +00000-0 +16904-3 0  9990
2 29978 099.3578 280.0045 0077423 132.3109 292.0879 13.95130577645608
0 FENGYUN 1C DEB
1 29979U 99025LD  19261.20765976 +.00000136 +00000-0 +77626-4 0  9994
2 29979 098.6442 330.2107 0112821 313.4410 106.2737 14.21174787656913
0 FENGYUN 1C DEB
1 29979U 99025LD  19262.19274146  .00000132  00000-0  76105-4 0  9994
2 29979  98.6441 331.1751 0112800 310.5610 106.2089 14.21175125657169
0 FENGYUN 1C DEB
1 29980U 99025LE  19261.22873873 +.00000293 +00000-0 +20107-3 0  9999
2 29980 098.7407 151.4127 0088609 191.0141 290.9761 14.04970896650029
0 FENGYUN 1C DEB
1 29980U 99025LE  19262.71332352  .00000319  00000-0  21662-3 0  9992
2 29980  98.7406 152.8435 0088695 186.8327 239.8638 14.04971711650334
0 FENGYUN 1C DEB
1 29981U 99025LF  19262.19667615  .00020586  00000-0  35012-3 0  9990
2 29981  98.8562 160.7097 0034533 294.5458  65.2191 15.50804291688779
0 FENGYUN 1C DEB
1 29982U 99025LG  19262.21544920  .00000185  00000-0  51331-4 0  9993
2 29982  99.3982 121.7460 0146751 282.8020 200.1032 14.54639813671308
0 FENGYUN 1C DEB
1 29982U 99025LG  19261.86025672 +.00000188 +00000-0 +52013-4 0  9992
2 29982 099.3983 121.3470 0146763 283.8690 140.0588 14.54639650671120
0 FENGYUN 1C DEB
1 29983U 99025LH  19262.13786772  .00001045  00000-0  22917-3 0  9991
2 29983  99.1733 309.6433 0074700  18.5757  42.2768 14.58455664668067
0 FENGYUN 1C DEB
1 29985U 99025LK  19262.10626542  .00000036  00000-0  45369-4 0  9994
2 29985  98.9425 290.8607 0029212 160.3225 267.6897 14.09879105652652
0 FENGYUN 1C DEB
1 29985U 99025LK  19261.96338608 +.00000029 +00000-0 +41386-4 0  9997
2 29985 098.9425 290.7188 0029202 160.7105 262.5104 14.09879067652635
0 FENGYUN 1C DEB
1 29986U 99025LL  19261.19291684 +.00000499 +00000-0 +28518-3 0  9997
2 29986 099.3806 158.1284 0028140 293.0733 195.8163 14.14440777652052
0 FENGYUN 1C DEB
1 29986U 99025LL  19262.38295833  .00000475  00000-0  27243-3 0  9997
2 29986  99.3806 159.3779 0028027 289.7192 135.5204 14.14441855652335
0 FENGYUN 1C DEB
1 29988U 99025LN  19261.94699281 +.00000720 +00000-0 +28831-3 0  9992
2 29988 098.8796 314.9187 0178334 205.6103 282.3403 14.23206683655138
0 FENGYUN 1C DEB
1 29989U 99025LP  19261.06384427 +.00000022 +00000-0 +31821-4 0  9998
2 29989 098.6383 289.3403 0125597 240.7754 172.3010 14.13998634654101
0 FENGYUN 1C DEB
1 29989U 99025LP  19262.05447361  .00000023  00000-0  32168-4 0  9991
2 29989  98.6382 290.2983 0125625 237.9195 175.0197 14.13998820654364
0 FENGYUN 1C DEB
1 29991U 99025LR  19262.79280168  .00001186  00000-0  49574-3 0  9994
2 29991 102.2077 232.7808 0010399 354.2277  71.0209 14.29316851656515
0 FENGYUN 1C DEB
1 29993U 99025LT  19262.04891093 -.00000158  00000-0 -66352-4 0  9993
2 29993  99.0908 288.5929 0039026 214.0204 145.8461 14.07433774651477
0 FENGYUN 1C DEB
1 29993U 99025LT  19261.90672960 -.00000151 +00000-0 -62471-4 0  9998
2 29993 099.0908 288.4498 0039022 214.4185 145.4455 14.07433790651371
0 FENGYUN 1C DEB
1 29994U 99025LU  19261.91878564 +.00000274 +00000-0 +19484-3 0  9997
2 29994 099.1306 297.4422 0138418 049.9478 071.2782 14.01171747648300
0 FENGYUN 1C DEB
1 29994U 99025LU  19262.70397655  .00000274  00000-0  19513-3 0  9995
2 29994  99.1306 298.2275 0138376  47.7888  71.9470 14.01172274648441
0 FENGYUN 1C DEB
1 29996U 99025LW  19262.77502102  .00000917  00000-0  65183-3 0  9997
2 29996  99.2653 226.9182 0147364 191.6770 239.0306 13.95117382643070
0 FENGYUN 1C DEB
1 29997U 99025LX  19261.95232821 -.00000011 +00000-0 +22824-4 0  9997
2 29997 099.0663 294.7035 0081801 130.1676 348.5901 13.96899910645733
0 FENGYUN 1C DEB
1 29998U 99025LY  19261.76910336 +.00000359 +00000-0 +19500-3 0  9991
2 29998 099.2746 162.5925 0004785 300.4033 059.6668 14.19085473655124
0 FENGYUN 1C DEB
1 29999U 99025LZ  19261.95051020 +.00000120 +00000-0 +68875-4 0  9995
2 29999 098.6272 298.5341 0198986 209.1433 272.3631 14.15849434654775
0 FENGYUN 1C DEB
1 29999U 99025LZ  19262.65662156  .00000115  00000-0  67051-4 0  9990
2 29999  98.6271 299.2184 0199023 207.1098 271.4612 14.15849702654918
0 TITAN 3C TRANSTAGE DEB
1 30000U 68081J   19262.30054571  .00000034  00000-0  00000+0 0  9997
2 30000   4.5539 309.1561 0121319 357.8996  15.4352  1.00908570 54346
0 TITAN 3C TRANSTAGE DEB
1 30000U 68081J   19261.31344355 +.00000039 +00000-0 +00000-0 0  9995
2 30000 004.5557 309.1600 0121101 357.9378 016.8014 01.00908265054389
0 FENGYUN 1C DEB
1 30001U 99025MA  19261.96314255 +.00000795 +00000-0 +42901-3 0  9993
2 30001 099.0388 258.6953 0054837 132.0970 281.7956 14.14843606650848
0 FENGYUN 1C DEB
1 30003U 99025MC  19261.42453078 +.00000129 +00000-0 +14408-3 0  9995
2 30003 099.3306 191.9433 0146902 045.0974 063.5786 13.83643413639817
0 FENGYUN 1C DEB
1 30003U 99025MC  19262.06669049  .00000131  00000-0  14549-3 0  9992
2 30003  99.3306 192.5807 0146887  43.3992  22.2398 13.83643577640007
0 FENGYUN 1C DEB
1 30004U 99025MD  19261.21180493 +.00000667 +00000-0 +39936-3 0  9991
2 30004 099.0411 007.7390 0040501 257.4331 165.8673 14.10216538651575
0 FENGYUN 1C DEB
1 30007U 99025MG  19261.42659140 +.00000500 +00000-0 +29076-3 0  9997
2 30007 099.2240 045.7681 0073476 309.7413 119.2231 14.12131550651243
0 FENGYUN 1C DEB
1 30007U 99025MG  19262.21668002  .00000520  00000-0  30167-3 0  9997
2 30007  99.2240  46.5808 0073484 307.4902 175.8160 14.12132418651478
0 FENGYUN 1C DEB
1 30008U 99025MH  19262.16282625  .00000453  00000-0  16642-3 0  9992
2 30008  99.3861 314.3481 0063855  40.8193  24.9314 14.36918864661988
0 FENGYUN 1C DEB
1 30008U 99025MH  19261.11581389 +.00000511 +00000-0 +18565-3 0  9996
2 30008 099.3862 313.2071 0063932 043.8440 008.8484 14.36918203661825
0 FENGYUN 1C DEB
1 30009U 99025MJ  19261.62134310 +.00000041 +00000-0 +57446-4 0  9991
2 30009 099.2248 289.4236 0085509 111.7413 249.2879 13.98785856646037
0 FENGYUN 1C DEB
1 30010U 99025MK  19261.89608407 +.00000011 +00000-0 +24437-4 0  9996
2 30010 098.8503 014.2203 0073679 279.0717 229.1658 14.23429128658587
0 FENGYUN 1C DEB
1 30010U 99025MK  19262.80591424  .00000011  00000-0  24447-4 0  9999
2 30010  98.8503  15.1354 0073683 276.4063 211.4902 14.23429241658890
0 FENGYUN 1C DEB
1 30012U 99025MM  19262.83973517  .00000066  00000-0  92908-4 0  9998
2 30012  99.5533 239.6112 0138891  48.5329  14.8838 13.84299733640615
0 FENGYUN 1C DEB
1 30013U 99025MN  19261.47318594 +.00000066 +00000-0 +90528-4 0  9992
2 30013 099.3849 208.4187 0130278 339.2600 129.7830 13.86181213641189
0 FENGYUN 1C DEB
1 30013U 99025MN  19262.12411315  .00000069  00000-0  93634-4 0  9994
2 30013  99.3850 209.0713 0130246 337.5239 138.0737 13.86181358641401
0 FENGYUN 1C DEB
1 30015U 99025MQ  19262.61420299  .00000206  00000-0  11196-3 0  9996
2 30015  99.1819 133.7315 0042097 168.1120 245.5446 14.22943902657624
0 FENGYUN 1C DEB
1 30016U 99025MR  19262.54093521  .00000459  00000-0  14599-3 0  9993
2 30016  98.9344 113.8997 0086131  65.7096 353.2448 14.42798718664500
0 FENGYUN 1C DEB
1 30016U 99025MR  19261.44283774 +.00000454 +00000-0 +14475-3 0  9990
2 30016 098.9345 112.7491 0086123 068.9218 049.6951 14.42797590664209
0 FENGYUN 1C DEB
1 30017U 99025MS  19261.94018798 +.00000009 +00000-0 +12609-4 0  9992
2 30017 098.6797 160.5708 0232517 306.8005 051.2055 14.55754735672816
0 FENGYUN 1C DEB
1 30017U 99025MS  19261.94018798  .00000009  00000-0  12609-4 0  9992
2 30017  98.6797 160.5708 0232517 306.8005  51.2055 14.55754735672951
0 FENGYUN 1C DEB
1 30018U 99025MT  19262.75707470  .00000247  00000-0  58796-4 0  9996
2 30018  98.7328 170.8551 0151407 355.2581  68.6240 14.56807159672114
0 FENGYUN 1C DEB
1 30019U 99025MU  19262.10968917  .00000529  00000-0  19128-3 0  9999
2 30019  98.1464 300.2246 0193338  85.5616 276.7627 14.27237786655473
